NORAD_CAT_ID,OBJECT_NAME,OBJECT_TYPE,EPOCH,MEAN_MOTION,ECCENTRICITY,INCLINATION,RA_OF_ASC_NODE,ARG_OF_PERICENTER,MEAN_ANOMALY,BSTAR,MEAN_MOTION_DOT,MEAN_MOTION_DDOT,TLE_LINE0,TLE_LINE1,TLE_LINE2,SEMIMAJOR_AXIS,PERIOD,APOGEE,PERIGEE,DECAYED
50192.0,STARLINK-3259,PAYLOAD,2024-04-02 21:53:17,15.08844439,0.0001406,53.2183,167.4827,91.4194,268.6959,-2.577e-05,-6.98e-06,0.0,0 STARLINK-3259,1 50192U 21125AN  24093.91201018 -.00000698  00000-0 -25770-4 0  9998,2 50192  53.2183 167.4827 0001406  91.4194 268.6959 15.08844439130189,6917.867,95.437,540.704,538.759,0.0
50192.0,STARLINK-3259,PAYLOAD,2024-04-03 13:47:09,15.088372,0.0001437,53.2177,164.5089,84.1358,275.9798,0.00014158,1.966e-05,0.0,0 STARLINK-3259,1 50192U 21125AN  24094.57441212  .00001966  00000-0  14158-3 0  9997,2 50192  53.2177 164.5089 0001437  84.1358 275.9798 15.08837200130286,6917.889,95.438,540.748,538.76,0.0
50192.0,STARLINK-3259,PAYLOAD,2024-04-04 04:05:37,15.08839443,0.0001483,53.2176,161.8325,84.7692,275.347,0.00015037,2.106e-05,0.0,0 STARLINK-3259,1 50192U 21125AN  24095.17057049  .00002106  00000-0  15037-3 0  9999,2 50192  53.2176 161.8325 0001483  84.7692 275.3470 15.08839443127284,6917.882,95.438,540.773,538.721,0.0
50192.0,STARLINK-3259,PAYLOAD,2024-04-04 12:02:33,15.08840417,0.0001277,53.2165,160.3442,84.8087,275.3051,8.1363e-05,1.007e-05,0.0,0 STARLINK-3259,1 50192U 21125AN  24095.50177198  .00001007  00000-0  81363-4 0  9999,2 50192  53.2165 160.3442 0001277  84.8087 275.3051 15.08840417130424,6917.879,95.438,540.628,538.861,0.0
50192.0,STARLINK-3259,PAYLOAD,2024-04-04 21:34:51,15.08847089,0.000127,53.2168,158.5595,86.7175,273.3962,8.2551e-05,1.026e-05,0.0,0 STARLINK-3259,1 50192U 21125AN  24095.89920657  .00001026  00000-0  82551-4 0  9998,2 50192  53.2168 158.5595 0001270  86.7175 273.3962 15.08847089130484,6917.859,95.437,540.602,538.845,0.0
50192.0,STARLINK-3259,PAYLOAD,2024-04-05 10:17:56,15.08845901,0.0001249,53.219,156.1819,104.286,255.8271,-5.2627e-05,-1.125e-05,0.0,0 STARLINK-3259,1 50192U 21125AN  24096.42913006 -.00001125  00000-0 -52627-4 0  9991,2 50192  53.2190 156.1819 0001249 104.2860 255.8271 15.08845901127479,6917.862,95.437,540.591,538.863,0.0
50192.0,STARLINK-3259,PAYLOAD,2024-04-05 13:28:43,15.08836919,0.0001244,53.2168,155.5893,69.4592,290.6533,-5.7579e-05,-1.204e-05,0.0,0 STARLINK-3259,1 50192U 21125AN  24096.56161612 -.00001204  00000-0 -57579-4 0  9993,2 50192  53.2168 155.5893 0001244  69.4592 290.6533 15.08836919130581,6917.89,95.438,540.615,538.894,0.0
50192.0,STARLINK-3259,PAYLOAD,2024-04-06 10:08:43,15.08842142,0.0001195,53.2176,151.7197,88.6092,271.5037,1.9526e-05,2.3e-07,0.0,0 STARLINK-3259,1 50192U 21125AN  24097.42273091  .00000023  00000-0  19526-4 0  9990,2 50192  53.2176 151.7197 0001195  88.6092 271.5037 15.08842142127621,6917.874,95.437,540.566,538.912,0.0
50192.0,STARLINK-3259,PAYLOAD,2024-04-07 13:10:16,15.08851352,0.0001173,53.217,146.6641,93.2023,266.9103,-0.0001247,-2.273e-05,0.0,0 STARLINK-3259,1 50192U 21125AN  24098.54880782 -.00002273  00000-0 -12470-3 0  9996,2 50192  53.2170 146.6641 0001173  93.2023 266.9103 15.08851352127797,6917.846,95.437,540.522,538.899,0.0
50192.0,STARLINK-3259,PAYLOAD,2024-04-08 03:28:45,15.08839719,0.0001137,53.2167,143.9872,86.1317,273.9805,2.8398e-05,1.64e-06,0.0,0 STARLINK-3259,1 50192U 21125AN  24099.14497384  .00000164  00000-0  28398-4 0  9997,2 50192  53.2167 143.9872 0001137  86.1317 273.9805 15.08839719127886,6917.881,95.438,540.533,538.96,0.0
50192.0,STARLINK-3259,PAYLOAD,2024-04-08 09:50:18,15.0884066,0.0001143,53.2167,142.7982,85.7538,274.3585,3.4889e-05,2.67e-06,0.0,0 STARLINK-3259,1 50192U 21125AN  24099.40993320  .00000267  00000-0  34889-4 0  9993,2 50192  53.2167 142.7982 0001143  85.7538 274.3585 15.08840660131019,6917.878,95.438,540.534,538.953,0.0
50192.0,STARLINK-3259,PAYLOAD,2024-04-08 19:22:36,15.08846092,0.0001195,53.217,141.0139,86.3281,273.7848,7.3512e-05,8.82e-06,0.0,0 STARLINK-3259,1 50192U 21125AN  24099.80736782  .00000882  00000-0  73512-4 0  9993,2 50192  53.2170 141.0139 0001195  86.3281 273.7848 15.08846092131074,6917.862,95.437,540.553,538.9,0.0
50192.0,STARLINK-3259,PAYLOAD,2024-04-09 09:41:06,15.08792486,0.0001634,53.2186,138.3397,98.6201,261.4977,0.00065498,0.00010138,0.0,0 STARLINK-3259,1 50192U 21125AN  24100.40354242  .00010138  00000-0  65498-3 0  9997,2 50192  53.2186 138.3397 0001634  98.6201 261.4977 15.08792486128072,6918.026,95.441,541.021,538.76,0.0
50192.0,STARLINK-3259,PAYLOAD,2024-04-09 19:13:23,15.08844776,0.0001464,53.2187,136.5559,95.1239,264.9921,1.9361e-05,2e-07,0.0,0 STARLINK-3259,1 50192U 21125AN  24100.80097058  .00000020  00000-0  19361-4 0  9998,2 50192  53.2187 136.5559 0001464  95.1239 264.9921 15.08844776128131,6917.866,95.437,540.744,538.718,0.0
50192.0,STARLINK-3259,PAYLOAD,2024-04-10 12:42:38,15.08834141,0.0001443,53.2183,133.2845,94.9237,265.192,0.00013428,1.849e-05,0.0,0 STARLINK-3259,1 50192U 21125AN  24101.52961429  .00001849  00000-0  13428-3 0  9997,2 50192  53.2183 133.2845 0001443  94.9237 265.1920 15.08834141128240,6917.898,95.438,540.762,538.765,0.0
50192.0,STARLINK-3259,PAYLOAD,2024-04-10 19:04:10,15.08847864,0.0001438,53.2182,132.0942,85.2792,274.8364,5.0646e-05,5.18e-06,0.0,0 STARLINK-3259,1 50192U 21125AN  24101.79456712  .00000518  00000-0  50646-4 0  9996,2 50192  53.2182 132.0942 0001438  85.2792 274.8364 15.08847864128286,6917.856,95.437,540.716,538.727,0.0
50192.0,STARLINK-3259,PAYLOAD,2024-04-11 10:58:02,15.08834406,0.0001407,53.2173,129.1207,87.6433,272.472,-6.8564e-06,-3.97e-06,0.0,0 STARLINK-3259,1 50192U 21125AN  24102.45697845 -.00000397  00000-0 -68564-5 0  9990,2 50192  53.2173 129.1207 0001407  87.6433 272.4720 15.08834406128380,6917.897,95.438,540.736,538.789,0.0
50192.0,STARLINK-3259,PAYLOAD,2024-04-11 18:54:58,15.08839848,0.0001381,53.217,127.6342,88.5982,271.5168,1.8428e-05,5e-08,0.0,0 STARLINK-3259,1 50192U 21125AN  24102.78817472  .00000005  00000-0  18428-4 0  9993,2 50192  53.2170 127.6342 0001381  88.5982 271.5168 15.08839848131521,6917.881,95.438,540.701,538.79,0.0
50192.0,STARLINK-3259,PAYLOAD,2024-04-12 10:48:49,15.08842062,0.0001437,53.217,124.6597,85.6543,274.4613,7.6455e-05,9.29e-06,0.0,0 STARLINK-3259,1 50192U 21125AN  24103.45057227  .00000929  00000-0  76455-4 0  9991,2 50192  53.2170 124.6597 0001437  85.6543 274.4613 15.08842062128539,6917.874,95.437,540.733,538.745,0.0
50192.0,STARLINK-3259,PAYLOAD,2024-04-13 01:07:16,15.08861415,0.0001346,53.2168,121.9834,80.9259,279.1886,-0.00019488,-3.39e-05,0.0,0 STARLINK-3259,1 50192U 21125AN  24104.04672393 -.00003390  00000-0 -19488-3 0  9993,2 50192  53.2168 121.9834 0001346  80.9259 279.1886 15.08861415128628,6917.815,95.436,540.611,538.749,0.0
50192.0,STARLINK-3259,PAYLOAD,2024-04-13 07:28:50,15.08840509,0.0001362,53.2166,120.7929,87.6325,272.4823,9.8989e-05,1.288e-05,0.0,0 STARLINK-3259,1 50192U 21125AN  24104.31169271  .00001288  00000-0  98989-4 0  9995,2 50192  53.2166 120.7929 0001362  87.6325 272.4823 15.08840509128666,6917.879,95.438,540.686,538.802,0.0
50192.0,STARLINK-3259,PAYLOAD,2024-04-14 07:19:37,15.08843198,0.0001376,53.2165,116.3316,88.1219,271.9931,3.694e-05,3e-06,0.0,0 STARLINK-3259,1 50192U 21125AN  24105.30529259  .00000300  00000-0  36940-4 0  9994,2 50192  53.2165 116.3316 0001376  88.1219 271.9931 15.08843198131901,6917.871,95.437,540.688,538.784,0.0
50192.0,STARLINK-3259,PAYLOAD,2024-04-15 03:59:38,15.08841074,0.0001409,53.217,112.4653,99.4207,260.6944,4.5694e-05,4.39e-06,0.0,0 STARLINK-3259,1 50192U 21125AN  24106.16641257  .00000439  00000-0  45694-4 0  9991,2 50192  53.2170 112.4653 0001409  99.4207 260.6944 15.08841074128947,6917.877,95.437,540.717,538.767,0.0
50192.0,STARLINK-3259,PAYLOAD,2024-04-15 10:21:10,15.08839959,0.0001414,53.217,111.2764,103.5216,256.5934,3.4971e-05,2.69e-06,0.0,0 STARLINK-3259,1 50192U 21125AN  24106.43137310  .00000269  00000-0  34971-4 0  9998,2 50192  53.2170 111.2764 0001414 103.5216 256.5934 15.08839959132071,6917.881,95.438,540.724,538.767,0.0
50192.0,STARLINK-3259,PAYLOAD,2024-04-16 05:25:48,15.08840302,0.0001322,53.2163,107.7085,91.401,268.7133,5.5216e-05,5.91e-06,0.0,0 STARLINK-3259,1 50192U 21125AN  24107.22625437  .00000591  00000-0  55216-4 0  9991,2 50192  53.2163 107.7085 0001322  91.4010 268.7133 15.08840302129104,6917.879,95.438,540.659,538.83,0.0
50192.0,STARLINK-3259,PAYLOAD,2024-04-16 10:11:57,15.08841562,0.000133,53.2163,106.8177,92.2366,267.8779,6.2674e-05,7.1e-06,0.0,0 STARLINK-3259,1 50192U 21125AN  24107.42497341  .00000710  00000-0  62674-4 0  9993,2 50192  53.2163 106.8177 0001330  92.2366 267.8779 15.08841562132220,6917.876,95.437,540.661,538.821,0.0
50192.0,STARLINK-3259,PAYLOAD,2024-04-16 16:33:29,15.08849707,0.0001366,53.2169,105.6284,93.22,266.8949,0.0001333,1.835e-05,0.0,0 STARLINK-3259,1 50192U 21125AN  24107.68992605  .00001835  00000-0  13330-3 0  9997,2 50192  53.2169 105.6284 0001366  93.2200 266.8949 15.08849707129176,6917.851,95.437,540.661,538.771,0.0
50192.0,STARLINK-3259,PAYLOAD,2024-04-17 05:16:36,15.08825366,0.0001364,53.2164,103.2499,97.2601,262.8546,-2.5096e-05,-6.87e-06,0.0,0 STARLINK-3259,1 50192U 21125AN  24108.21986896 -.00000687  00000-0 -25096-4 0  9991,2 50192  53.2164 103.2499 0001364  97.2601 262.8546 15.08825366129253,6917.925,95.438,540.734,538.847,0.0
50192.0,STARLINK-3259,PAYLOAD,2024-04-17 10:02:45,15.08829564,0.0001405,53.2163,102.3571,99.0784,261.0367,1.0542e-05,-1.2e-06,0.0,0 STARLINK-3259,1 50192U 21125AN  24108.41858713 -.00000120  00000-0  10542-4 0  9990,2 50192  53.2163 102.3571 0001405  99.0784 261.0367 15.08829564132374,6917.912,95.438,540.749,538.805,0.0
50192.0,STARLINK-3259,PAYLOAD,2024-04-18 03:32:00,15.08833607,0.0001457,53.2162,99.0863,98.3273,261.7884,2.979e-05,1.86e-06,0.0,0 STARLINK-3259,1 50192U 21125AN  24109.14722464  .00000186  00000-0  29790-4 0  9990,2 50192  53.2162  99.0863 0001457  98.3273 261.7884 15.08833607129393,6917.9,95.438,540.773,538.757,0.0
